[
  {
    "COMMENT": "GENERATED VIA SPACETRACK.ORG API",
    "ORIGINATOR": "18 SPCS",
    "NORAD_CAT_ID": "33105",
    "OBJECT_NAME": "JASON 2",
    "OBJECT_TYPE": "PAYLOAD",
    "CLASSIFICATION_TYPE": "U",
    "INTLDES": "08032A",
    "EPOCH": "2023-04-10 01:12:44",
    "EPOCH_MICROSECONDS": "381088",
    "MEAN_MOTION": "12.87658284",
    "ECCENTRICITY": "0.0008102",
    "INCLINATION": "66.0425",
    "RA_OF_ASC_NODE": "338.7138",
    "ARG_OF_PERICENTER": "273.0965",
    "MEAN_ANOMALY": "245.6483",
    "EPHEMERIS_TYPE": "0",
    "ELEMENT_SET_NO": "999",
    "REV_AT_EPOCH": "69381",
    "BSTAR": "0.0001587",
    "MEAN_MOTION_DOT": "-0.00000022",
    "MEAN_MOTION_DDOT": "0",
    "FILE": "3885195",
    "TLE_LINE0": "0 JASON 2",
    "TLE_LINE1": "1 33105U 08032A   23100.05051367 -.00000022  00000-0  15870-3 0  9997",
    "TLE_LINE2": "2 33105  66.0425 338.7138 0008102 273.0965 245.6483 12.87658284693813",
    "OBJECT_ID": "2008-032A",
    "OBJECT_NUMBER": "33105",
    "SEMIMAJOR_AXIS": "7688.969",
    "PERIOD": "111.831",
    "APOGEE": "1317.063",
    "PERIGEE": "1304.604",
    "DECAYED": "0"
  },
  {
    "COMMENT": "GENERATED VIA SPACETRACK.ORG API",
    "ORIGINATOR": "18 SPCS",
    "NORAD_CAT_ID": "33105",
    "OBJECT_NAME": "JASON 2",
    "OBJECT_TYPE": "PAYLOAD",
    "CLASSIFICATION_TYPE": "U",
    "INTLDES": "08032A",
    "EPOCH": "2023-04-11 03:21:12",
    "EPOCH_MICROSECONDS": "404160",
    "MEAN_MOTION": "12.87658371",
    "ECCENTRICITY": "0.0008086",
    "INCLINATION": "66.0422",
    "RA_OF_ASC_NODE": "336.4236",
    "ARG_OF_PERICENTER": "273.0309",
    "MEAN_ANOMALY": "254.3393",
    "EPHEMERIS_TYPE": "0",
    "ELEMENT_SET_NO": "999",
    "REV_AT_EPOCH": "69404",
    "BSTAR": "0.00016027",
    "MEAN_MOTION_DOT": "-0.00000022",
    "MEAN_MOTION_DDOT": "0",
    "FILE": "3885575",
    "TLE_LINE0": "0 JASON 2",
    "TLE_LINE1": "1 33105U 08032A   23101.13972690 -.00000022  00000-0  16027-3 0  9993",
    "TLE_LINE2": "2 33105  66.0422 336.4236 0008086 273.0309 254.3393 12.87658371694047",
    "OBJECT_ID": "2008-032A",
    "OBJECT_NUMBER": "33105",
    "SEMIMAJOR_AXIS": "7688.968",
    "PERIOD": "111.831",
    "APOGEE": "1317.051",
    "PERIGEE": "1304.616",
    "DECAYED": "0"
  },
  {
    "COMMENT": "GENERATED VIA SPACETRACK.ORG API",
    "ORIGINATOR": "18 SPCS",
    "NORAD_CAT_ID": "33105",
    "OBJECT_NAME": "JASON 2",
    "OBJECT_TYPE": "PAYLOAD",
    "CLASSIFICATION_TYPE": "U",
    "INTLDES": "08032A",
    "EPOCH": "2023-04-11 03:21:12",
    "EPOCH_MICROSECONDS": "404160",
    "MEAN_MOTION": "12.87658371",
    "ECCENTRICITY": "0.0008086",
    "INCLINATION": "66.0422",
    "RA_OF_ASC_NODE": "336.4236",
    "ARG_OF_PERICENTER": "273.0309",
    "MEAN_ANOMALY": "254.3393",
    "EPHEMERIS_TYPE": "0",
    "ELEMENT_SET_NO": "999",
    "REV_AT_EPOCH": "69395",
    "BSTAR": "0.00016027",
    "MEAN_MOTION_DOT": "-0.00000022",
    "MEAN_MOTION_DDOT": "0",
    "FILE": "3885783",
    "TLE_LINE0": "0 JASON 2",
    "TLE_LINE1": "1 33105U 08032A   23101.13972690 -.00000022  00000-0  16027-3 0  9993",
    "TLE_LINE2": "2 33105  66.0422 336.4236 0008086 273.0309 254.3393 12.87658371693956",
    "OBJECT_ID": "2008-032A",
    "OBJECT_NUMBER": "33105",
    "SEMIMAJOR_AXIS": "7688.968",
    "PERIOD": "111.831",
    "APOGEE": "1317.051",
    "PERIGEE": "1304.616",
    "DECAYED": "0"
  },
  {
    "COMMENT": "GENERATED VIA SPACETRACK.ORG API",
    "ORIGINATOR": "18 SPCS",
    "NORAD_CAT_ID": "33105",
    "OBJECT_NAME": "JASON 2",
    "OBJECT_TYPE": "PAYLOAD",
    "CLASSIFICATION_TYPE": "U",
    "INTLDES": "08032A",
    "EPOCH": "2023-04-11 21:10:46",
    "EPOCH_MICROSECONDS": "715232",
    "MEAN_MOTION": "12.87658409",
    "ECCENTRICITY": "0.0008079",
    "INCLINATION": "66.0421",
    "RA_OF_ASC_NODE": "334.8619",
    "ARG_OF_PERICENTER": "272.9944",
    "MEAN_ANOMALY": "97.1438",
    "EPHEMERIS_TYPE": "0",
    "ELEMENT_SET_NO": "999",
    "REV_AT_EPOCH": "69405",
    "BSTAR": "0.00013233",
    "MEAN_MOTION_DOT": "-0.00000029",
    "MEAN_MOTION_DDOT": "0",
    "FILE": "3885919",
    "TLE_LINE0": "0 JASON 2",
    "TLE_LINE1": "1 33105U 08032A   23101.88248513 -.00000029  00000-0  13233-3 0  9998",
    "TLE_LINE2": "2 33105  66.0421 334.8619 0008079 272.9944  97.1438 12.87658409694054",
    "OBJECT_ID": "2008-032A",
    "OBJECT_NUMBER": "33105",
    "SEMIMAJOR_AXIS": "7688.968",
    "PERIOD": "111.831",
    "APOGEE": "1317.045",
    "PERIGEE": "1304.621",
    "DECAYED": "0"
  },
  {
    "COMMENT": "GENERATED VIA SPACETRACK.ORG API",
    "ORIGINATOR": "18 SPCS",
    "NORAD_CAT_ID": "33105",
    "OBJECT_NAME": "JASON 2",
    "OBJECT_TYPE": "PAYLOAD",
    "CLASSIFICATION_TYPE": "U",
    "INTLDES": "08032A",
    "EPOCH": "2023-04-12 03:37:42",
    "EPOCH_MICROSECONDS": "381408",
    "MEAN_MOTION": "12.87658443",
    "ECCENTRICITY": "0.0008076",
    "INCLINATION": "66.042",
    "RA_OF_ASC_NODE": "334.2969",
    "ARG_OF_PERICENTER": "272.9642",
    "MEAN_ANOMALY": "262.628",
    "EPHEMERIS_TYPE": "0",
    "ELEMENT_SET_NO": "999",
    "REV_AT_EPOCH": "69408",
    "BSTAR": "0.00014026",
    "MEAN_MOTION_DOT": "-0.00000027",
    "MEAN_MOTION_DDOT": "0",
    "FILE": "3886349",
    "TLE_LINE0": "0 JASON 2",
    "TLE_LINE1": "1 33105U 08032A   23102.15118497 -.00000027  00000-0  14026-3 0  9995",
    "TLE_LINE2": "2 33105  66.0420 334.2969 0008076 272.9642 262.6280 12.87658443694082",
    "OBJECT_ID": "2008-032A",
    "OBJECT_NUMBER": "33105",
    "SEMIMAJOR_AXIS": "7688.968",
    "PERIOD": "111.831",
    "APOGEE": "1317.043",
    "PERIGEE": "1304.623",
    "DECAYED": "0"
  },
  {
    "COMMENT": "GENERATED VIA SPACETRACK.ORG API",
    "ORIGINATOR": "18 SPCS",
    "NORAD_CAT_ID": "33105",
    "OBJECT_NAME": "JASON 2",
    "OBJECT_TYPE": "PAYLOAD",
    "CLASSIFICATION_TYPE": "U",
    "INTLDES": "08032A",
    "EPOCH": "2023-04-13 01:52:42",
    "EPOCH_MICROSECONDS": "970368",
    "MEAN_MOTION": "12.87658468",
    "ECCENTRICITY": "0.0008068",
    "INCLINATION": "66.0417",
    "RA_OF_ASC_NODE": "332.3476",
    "ARG_OF_PERICENTER": "272.9336",
    "MEAN_ANOMALY": "239.8259",
    "EPHEMERIS_TYPE": "0",
    "ELEMENT_SET_NO": "999",
    "REV_AT_EPOCH": "69420",
    "BSTAR": "0.0001087",
    "MEAN_MOTION_DOT": "-0.00000035",
    "MEAN_MOTION_DDOT": "0",
    "FILE": "3886564",
    "TLE_LINE0": "0 JASON 2",
    "TLE_LINE1": "1 33105U 08032A   23103.07827512 -.00000035  00000-0  10870-3 0  9994",
    "TLE_LINE2": "2 33105  66.0417 332.3476 0008068 272.9336 239.8259 12.87658468694204",
    "OBJECT_ID": "2008-032A",
    "OBJECT_NUMBER": "33105",
    "SEMIMAJOR_AXIS": "7688.968",
    "PERIOD": "111.831",
    "APOGEE": "1317.036",
    "PERIGEE": "1304.629",
    "DECAYED": "0"
  },
  {
    "COMMENT": "GENERATED VIA SPACETRACK.ORG API",
    "ORIGINATOR": "18 SPCS",
    "NORAD_CAT_ID": "33105",
    "OBJECT_NAME": "JASON 2",
    "OBJECT_TYPE": "PAYLOAD",
    "CLASSIFICATION_TYPE": "U",
    "INTLDES": "08032A",
    "EPOCH": "2023-04-14 02:10:53",
    "EPOCH_MICROSECONDS": "713344",
    "MEAN_MOTION": "12.87658483",
    "ECCENTRICITY": "0.000806",
    "INCLINATION": "66.0415",
    "RA_OF_ASC_NODE": "330.2184",
    "ARG_OF_PERICENTER": "272.8816",
    "MEAN_ANOMALY": "253.5055",
    "EPHEMERIS_TYPE": "0",
    "ELEMENT_SET_NO": "999",
    "REV_AT_EPOCH": "69442",
    "BSTAR": "0.00011024",
    "MEAN_MOTION_DOT": "-0.00000034",
    "MEAN_MOTION_DDOT": "0",
    "FILE": "3887216",
    "TLE_LINE0": "0 JASON 2",
    "TLE_LINE1": "1 33105U 08032A   23104.09089946 -.00000034  00000-0  11024-3 0  9999",
    "TLE_LINE2": "2 33105  66.0415 330.2184 0008060 272.8816 253.5055 12.87658483694427",
    "OBJECT_ID": "2008-032A",
    "OBJECT_NUMBER": "33105",
    "SEMIMAJOR_AXIS": "7688.968",
    "PERIOD": "111.831",
    "APOGEE": "1317.030",
    "PERIGEE": "1304.636",
    "DECAYED": "0"
  },
  {
    "COMMENT": "GENERATED VIA SPACETRACK.ORG API",
    "ORIGINATOR": "18 SPCS",
    "NORAD_CAT_ID": "33105",
    "OBJECT_NAME": "JASON 2",
    "OBJECT_TYPE": "PAYLOAD",
    "CLASSIFICATION_TYPE": "U",
    "INTLDES": "08032A",
    "EPOCH": "2023-04-14 02:10:53",
    "EPOCH_MICROSECONDS": "713344",
    "MEAN_MOTION": "12.87658483",
    "ECCENTRICITY": "0.000806",
    "INCLINATION": "66.0415",
    "RA_OF_ASC_NODE": "330.2184",
    "ARG_OF_PERICENTER": "272.8816",
    "MEAN_ANOMALY": "253.5055",
    "EPHEMERIS_TYPE": "0",
    "ELEMENT_SET_NO": "999",
    "REV_AT_EPOCH": "69433",
    "BSTAR": "0.00011024",
    "MEAN_MOTION_DOT": "-0.00000034",
    "MEAN_MOTION_DDOT": "0",
    "FILE": "3887333",
    "TLE_LINE0": "0 JASON 2",
    "TLE_LINE1": "1 33105U 08032A   23104.09089946 -.00000034  00000-0  11024-3 0  9999",
    "TLE_LINE2": "2 33105  66.0415 330.2184 0008060 272.8816 253.5055 12.87658483694337",
    "OBJECT_ID": "2008-032A",
    "OBJECT_NUMBER": "33105",
    "SEMIMAJOR_AXIS": "7688.968",
    "PERIOD": "111.831",
    "APOGEE": "1317.030",
    "PERIGEE": "1304.636",
    "DECAYED": "0"
  },
  {
    "COMMENT": "GENERATED VIA SPACETRACK.ORG API",
    "ORIGINATOR": "18 SPCS",
    "NORAD_CAT_ID": "33105",
    "OBJECT_NAME": "JASON 2",
    "OBJECT_TYPE": "PAYLOAD",
    "CLASSIFICATION_TYPE": "U",
    "INTLDES": "08032A",
    "EPOCH": "2023-04-15 14:45:26",
    "EPOCH_MICROSECONDS": "83872",
    "MEAN_MOTION": "12.87658581",
    "ECCENTRICITY": "0.0008045",
    "INCLINATION": "66.0411",
    "RA_OF_ASC_NODE": "327.0139",
    "ARG_OF_PERICENTER": "272.7737",
    "MEAN_ANOMALY": "117.4592",
    "EPHEMERIS_TYPE": "0",
    "ELEMENT_SET_NO": "999",
    "REV_AT_EPOCH": "69453",
    "BSTAR": "0.00016005",
    "MEAN_MOTION_DOT": "-0.00000022",
    "MEAN_MOTION_DDOT": "0",
    "FILE": "3887974",
    "TLE_LINE0": "0 JASON 2",
    "TLE_LINE1": "1 33105U 08032A   23105.61488523 -.00000022  00000-0  16005-3 0  9993",
    "TLE_LINE2": "2 33105  66.0411 327.0139 0008045 272.7737 117.4592 12.87658581694536",
    "OBJECT_ID": "2008-032A",
    "OBJECT_NUMBER": "33105",
    "SEMIMAJOR_AXIS": "7688.967",
    "PERIOD": "111.831",
    "APOGEE": "1317.018",
    "PERIGEE": "1304.647",
    "DECAYED": "0"
  }
]